ONEWEB-0603             
1 54667U 22166AB  24062.93736666  .00000036  00000+0  55894-4 0  9998
2 54667  87.9232  50.4188 0002307  94.1780 265.9618 13.21825894 61005
ONEWEB-0604             
1 54668U 22166AC  24062.92476842  .00000038  00000+0  59407-4 0  9991
2 54668  87.9226  50.4086 0002216  79.7116 280.4267 13.21826049 60966
ONEWEB-0605             
1 54669U 22166AD  24063.22123098 -.00000298  00000+0 -75219-3 0  9996
2 54669  87.9224  50.3827 0002212 105.1765 254.9613 13.21822522 61545
ONEWEB-0606             
1 54670U 22166AE  24062.94053538 -.00000011  00000+0 -57591-4 0  9994
2 54670  87.9231  50.4233 0001770  81.3451 278.7884 13.21825269 61097
ONEWEB-0607             
1 54671U 22166AF  24062.90741094  .00000061  00000+0  11582-3 0  9994
2 54671  87.9227  50.4112 0002221  91.8391 268.2998 13.21825667 61069
ONEWEB-0608             
1 54672U 22166AG  24062.91371689  .00000062  00000+0  11877-3 0  9993
2 54672  87.9233  50.4253 0002338 101.1881 258.9516 13.21826070 61073
ONEWEB-0610             
1 54673U 22166AH  24062.89478928  .00000050  00000+0  90471-4 0  9990
2 54673  87.9227  50.4296 0002231  98.4897 261.6490 13.21826522 60973
ONEWEB-0611             
1 54674U 22166AJ  24063.19128444 -.00000067  00000+0 -19412-3 0  9995
2 54674  87.9226  50.3698 0001815  72.3046 287.8286 13.21824851 61474
